ONEWEB-0205             
1 48226U 21031S   24294.38194745 -.00000220  00000+0 -62833-3 0  9991
2 48226  87.9005  49.9604 0001561  94.3058 265.8251 13.14504043168815
ONEWEB-0206             
1 48227U 21031T   24294.35499107 -.00000161  00000+0 -46783-3 0  9999
2 48227  87.9005  49.9517 0001544  94.8103 265.3203 13.14499913168761
ONEWEB-0181             
1 48230U 21031W   24294.41526759  .00000030  00000+0  45581-4 0  9993
2 48230  87.9008  50.0052 0001744  94.4008 265.7321 13.14501405168784
ONEWEB-0188             
1 48231U 21031X   24294.37719161  .00000181  00000+0  45410-3 0  9997
2 48231  87.9012  50.0079 0001566  97.6165 262.5143 13.14507453168685
ONEWEB-0220             
1 48232U 21031Y   24294.34073361  .00000008  00000+0 -12028-4 0  9999
2 48232  87.9001  49.9715 0001397  93.0096 267.1194 13.14501475168947
ONEWEB-0165             
1 48233U 21031Z   24294.36927861  .00000005  00000+0 -20193-4 0  9994
2 48233  87.9013  49.9918 0001657  94.0917 266.0402 13.14502017168907
